ONEWEB-0233             
1 48795U 21045AE  25183.91569536  .00000107  00000+0  25105-3 0  9991
2 48795  87.9064 328.8782 0002240  97.9169 262.2215 13.15548363198373
ONEWEB-0190             
1 48796U 21045AF  25183.82709747 -.00000028  00000+0 -10872-3 0  9991
2 48796  87.9066 328.8601 0002668 104.8534 255.2891 13.15548890198438
ONEWEB-0236             
1 48797U 21045AG  25183.92058631  .00000136  00000+0  32598-3 0  9999
2 48797  87.9070 328.8498 0002008  96.4157 263.7202 13.15547856198333
ONEWEB-0248             
1 48798U 21045AH  25183.93327180  .00000105  00000+0  24501-3 0  9990
2 48798  87.9062 328.8047 0002547  92.5934 267.5488 13.15547419198493
ONEWEB-0225             
1 48799U 21045AJ  25183.87939267  .00000048  00000+0  92240-4 0  9991
2 48799  87.9068 328.8456 0002531 102.7279 257.4134 13.15548592198492
ONEWEB-0215             
1 48800U 21045AK  25183.92535090  .00000127  00000+0  30215-3 0  9997
2 48800  87.9060 328.7887 0002629  98.6898 261.4530 13.15549604198379
ONEWEB-0216             
1 48801U 21045AL  25183.85878551  .00000137  00000+0  32871-3 0  9993
2 48801  87.9062 328.8479 0001880 104.6410 255.4929 13.15548899198376
ONEWEB-0239             
1 48802U 21045AM  25183.93959621  .00000102  00000+0  23690-3 0  9992
2 48802  87.9072 328.8411 0002694  91.9424 268.2014 13.15548681198423
